NORAD_CAT_ID,OBJECT_NAME,OBJECT_TYPE,EPOCH,MEAN_MOTION,ECCENTRICITY,INCLINATION,RA_OF_ASC_NODE,ARG_OF_PERICENTER,MEAN_ANOMALY,BSTAR,MEAN_MOTION_DOT,MEAN_MOTION_DDOT,TLE_LINE0,TLE_LINE1,TLE_LINE2,SEMIMAJOR_AXIS,PERIOD,APOGEE,PERIGEE,DECAYED
51861.0,STARLINK-3562,PAYLOAD,2022-05-22 14:00:01,15.20068798,0.0001769,53.2173,116.4064,44.9919,182.3914,-0.035616,-0.0072523,0.0,0 STARLINK-3562,1 51861U 22022K   22142.58334491 -.00725230  00000-0 -35616-1 0  9990,2 51861  53.2173 116.4064 0001769  44.9919 182.3914 15.20068798  1303,6883.77,94.733,506.853,504.417,0.0
51861.0,STARLINK-3562,PAYLOAD,2022-05-22 22:00:01,15.19557742,0.0001855,53.2174,114.8814,41.3481,210.8764,-0.036003,-0.00722445,0.0,0 STARLINK-3562,1 51861U 22022K   22142.91668981 -.00722445  00000-0 -36003-1 0  9997,2 51861  53.2174 114.8814 0001855  41.3481 210.8764 15.19557742 13741,6885.313,94.764,508.455,505.901,0.0
51861.0,STARLINK-3562,PAYLOAD,2022-05-23 14:00:01,15.18539473,0.0001518,53.2173,111.838,53.1228,246.7533,-0.037312,-0.00726506,0.0,0 STARLINK-3562,1 51861U 22022K   22143.58334491 -.00726506  00000-0 -37312-1 0  9993,2 51861  53.2173 111.8380 0001518  53.1228 246.7533 15.18539473  1302,6888.391,94.828,511.302,509.21,0.0
51861.0,STARLINK-3562,PAYLOAD,2022-05-23 22:00:01,15.18026895,0.000162,53.2176,110.3167,45.3482,277.5309,-0.03755,-0.00720778,0.0,0 STARLINK-3562,1 51861U 22022K   22143.91668981 -.00720778  00000-0 -37550-1 0  9993,2 51861  53.2176 110.3167 0001620  45.3482 277.5309 15.18026895 13890,6889.941,94.86,512.923,510.69,0.0
51861.0,STARLINK-3562,PAYLOAD,2022-05-24 12:24:02,15.18453815,0.0004126,53.2147,107.611,22.8758,337.2421,-0.010652,-0.0021603,0.0,0 STARLINK-3562,1 51861U 22022K   22144.51669528 -.00216030  00000-0 -10652-1 0  9993,2 51861  53.2147 107.6110 0004126  22.8758 337.2421 15.18453815 13980,6888.65,94.833,513.357,507.673,0.0
51861.0,STARLINK-3562,PAYLOAD,2022-05-24 22:00:00,15.164968900000002,0.0001631999999999,53.2176,105.763,42.9998,344.9554,-0.039248,-0.00720866,0.0,0 STARLINK-3562,1 51861U 22022K   22144.91667824 -.00720866  00000-0 -39248-1 0  9993,2 51861  53.2176 105.7630 0001632  42.9998 344.9554 15.16496890 14044,6894.575,94.956,517.565,515.315,0.0
51861.0,STARLINK-3562,PAYLOAD,2022-05-25 14:00:01,15.15478366,0.0001634,53.2174,102.7333,43.0994,25.2176,-0.040609,-0.00724197,0.0,0 STARLINK-3562,1 51861U 22022K   22145.58334491 -.00724197  00000-0 -40609-1 0  9992,2 51861  53.2174 102.7333 0001634  43.0994  25.2176 15.15478366  1300,6897.6640000000025,95.02,520.656,518.4019999999998,0.0
51861.0,STARLINK-3562,PAYLOAD,2022-05-25 22:00:00,15.14967055,0.0001789,53.2175,101.2196,39.567,48.0126,-0.041028,-0.00721312,0.0,0 STARLINK-3562,1 51861U 22022K   22145.91667824 -.00721312  00000-0 -41028-1 0  9990,2 51861  53.2175 101.2196 0001789  39.5670  48.0126 15.14967055 14202,6899.215999999999,95.052,522.315,519.846,0.0
51861.0,STARLINK-3562,PAYLOAD,2022-05-26 11:52:53,15.15408922,0.0002996,53.2153,98.6234,22.5272,337.5854,-0.011761,-0.00218457,0.0,0 STARLINK-3562,1 51861U 22022K   22146.49505848 -.00218457  00000-0 -11761-1 0  9993,2 51861  53.2153  98.6234 0002996  22.5272 337.5854 15.15408922 14287,6897.874,95.024,521.806,517.673,0.0
51861.0,STARLINK-3562,PAYLOAD,2022-05-26 22:00:00,15.13437205,0.0001872,53.2176,96.687,40.6846,101.0042,-0.042858,-0.00721516,0.0,0 STARLINK-3562,1 51861U 22022K   22146.91667824 -.00721516  00000-0 -42858-1 0  9999,2 51861  53.2176  96.6870 0001872  40.6846 101.0042 15.13437205 14351,6903.864000000001,95.148,527.0219999999998,524.437,0.0
51861.0,STARLINK-3562,PAYLOAD,2022-05-27 00:33:30,15.14515355,0.0001934,53.2164,96.2273,324.8032,35.2835,-0.010355,-0.00188323,0.0,0 STARLINK-3562,1 51861U 22022K   22147.02326485 -.00188323  00000-0 -10355-1 0  9997,2 51861  53.2164  96.2273 0001934 324.8032  35.2835 15.14515355 14367,6900.587,95.08,523.7869999999998,521.118,0.0
51861.0,STARLINK-3562,PAYLOAD,2022-05-27 13:14:26,15.13920943,0.0003484,53.2149,93.8349,47.3707,312.758,-0.011457,-0.00204452,0.0,0 STARLINK-3562,1 51861U 22022K   22147.55169280 -.00204452  00000-0 -11457-1 0  9999,2 51861  53.2149  93.8349 0003484  47.3707 312.7580 15.13920943 14446,6902.393,95.117,526.663,521.854,0.0
51861.0,STARLINK-3562,PAYLOAD,2022-05-27 22:00:01,15.11907244,0.0001909,53.2177,92.1651,42.0659,148.2798,-0.044735,-0.00721435,0.0,0 STARLINK-3562,1 51861U 22022K   22147.91668981 -.00721435  00000-0 -44735-1 0  9991,2 51861  53.2177  92.1651 0001909  42.0659 148.2798 15.11907244 14500,6908.521,95.244,531.705,529.067,0.0
51861.0,STARLINK-3562,PAYLOAD,2022-05-28 13:02:39,15.12266775,0.0001356,53.2145,89.3563,89.7382,270.3767,-0.012518,-0.00212936,0.0,0 STARLINK-3562,1 51861U 22022K   22148.54350788 -.00212936  00000-0 -12518-1 0  9999,2 51861  53.2145  89.3563 0001356  89.7382 270.3767 15.12266775 14525,6907.426,95.221,530.2280000000002,528.354,0.0
51861.0,STARLINK-3562,PAYLOAD,2022-05-28 22:00:00,15.10377241,0.000178,53.2176,87.6539,47.3488,186.0127,-0.046664,-0.00721139,0.0,0 STARLINK-3562,1 51861U 22022K   22148.91667824 -.00721139  00000-0 -46664-1 0  9991,2 51861  53.2176  87.6539 0001780  47.3488 186.0127 15.10377241  1305,6913.186,95.34,536.281,533.82,0.0
51861.0,STARLINK-3562,PAYLOAD,2022-05-29 06:00:02,15.09864746,0.0001856,53.2175,86.1539,43.5492,203.0093,-0.047033,-0.00716907,0.0,0 STARLINK-3562,1 51861U 22022K   22149.25002315 -.00716907  00000-0 -47033-1 0  9995,2 51861  53.2175  86.1539 0001856  43.5492 203.0093 15.09864746 14704,6914.75,95.373,537.898,535.332,0.0
51861.0,STARLINK-3562,PAYLOAD,2022-05-29 14:00:01,15.09302061,0.0001641,53.2175,84.6527,49.8654,209.1621,-0.038331,-0.00577428,0.0,0 STARLINK-3562,1 51861U 22022K   22149.58334491 -.00577428  00000-0 -38331-1 0  9998,2 51861  53.2175  84.6527 0001641  49.8654 209.1621 15.09302061  1308,6916.468000000003,95.408,539.4680000000002,537.198,0.0
51861.0,STARLINK-3562,PAYLOAD,2022-05-29 22:00:00,15.08837228,0.0001781999999999,53.2175,83.1555,47.4113,223.5147,-3.954e-05,-9.17e-06,0.0,0 STARLINK-3562,1 51861U 22022K   22149.91667824 -.00000917  00000-0 -39540-4 0  9994,2 51861  53.2175  83.1555 0001782  47.4113 223.5147 15.08837228 14802,6917.889,95.438,540.987,538.521,0.0
51861.0,STARLINK-3562,PAYLOAD,2022-05-30 12:42:23,15.09756894,0.0002206,53.2143,80.421,54.5977,305.5221,-0.0099635,-0.0015934,0.0,0 STARLINK-3562,1 51861U 22022K   22150.52943609 -.00159340  00000-0 -99635-2 0  9995,2 51861  53.2143  80.4210 0002206  54.5977 305.5221 15.09756894 14897,6915.079000000002,95.38,538.47,535.419,0.0
51861.0,STARLINK-3562,PAYLOAD,2022-05-30 14:00:01,15.08848295,0.0001675,53.2139,80.1721,51.6522,242.4714,-0.00027255,-4.624e-05,0.0,0 STARLINK-3562,1 51861U 22022K   22150.58334491 -.00004624  00000-0 -27255-3 0  9998,2 51861  53.2139  80.1721 0001675  51.6522 242.4714 15.08848295  1303,6917.855,95.437,540.879,538.561,0.0
51861.0,STARLINK-3562,PAYLOAD,2022-05-30 22:00:00,15.0885194,0.00017,53.2141,78.6761,52.4854,253.2397,-0.0018267,-0.00029252,0.0,0 STARLINK-3562,1 51861U 22022K   22150.91667824 -.00029252  00000-0 -18267-2 0  9990,2 51861  53.2141  78.6761 0001700  52.4854 253.2397 15.08851940 14951,6917.844,95.437,540.885,538.533,0.0
51861.0,STARLINK-3562,PAYLOAD,2022-05-31 04:36:00,15.09269067,0.0001324,53.2141,77.4411,51.3996,308.7114,-0.0049381,-0.00078938,0.0,0 STARLINK-3562,1 51861U 22022K   22151.19167595 -.00078938  00000-0 -49381-2 0  9997,2 51861  53.2141  77.4411 0001324  51.3996 308.7114 15.09269067 14921,6916.569,95.41,539.35,537.518,0.0
51861.0,STARLINK-3562,PAYLOAD,2022-05-31 12:32:51,15.09207616,0.0001176,53.2143,75.9539,73.471,286.6412,-0.0044552,-0.00071203,0.0,0 STARLINK-3562,1 51861U 22022K   22151.52281862 -.00071203  00000-0 -44552-2 0  9991,2 51861  53.2143  75.9539 0001176  73.4710 286.6412 15.09207616 15042,6916.757,95.414,539.435,537.809,0.0
51861.0,STARLINK-3562,PAYLOAD,2022-05-31 22:00:00,15.08868109,0.0001781,53.2146,74.187,52.2339,288.2697,-0.0011034,-0.00017819,0.0,0 STARLINK-3562,1 51861U 22022K   22151.91667824 -.00017819  00000-0 -11034-2 0  9992,2 51861  53.2146  74.1870 0001781  52.2339 288.2697 15.08868109 15107,6917.794,95.436,540.8919999999998,538.427,0.0
51861.0,STARLINK-3562,PAYLOAD,2022-06-01 20:00:01,15.08865296,0.0001688,53.215,70.0714,52.5038,229.9499,-0.0018124,-0.00029037,0.0,0 STARLINK-3562,1 51861U 22022K   22152.83334491 -.00029037  00000-0 -18124-2 0  9997,2 51861  53.2150  70.0714 0001688  52.5038 229.9499 15.08865296 15240,6917.803000000001,95.436,540.836,538.5,0.0
51861.0,STARLINK-3562,PAYLOAD,2022-06-03 00:57:32,15.08839914,0.0001751,53.2154,64.6542,49.7311,310.3834,-3.925e-05,-9.13e-06,0.0,0 STARLINK-3562,1 51861U 22022K   22154.03995537 -.00000913  00000-0 -39250-4 0  9992,2 51861  53.2154  64.6542 0001751  49.7311 310.3834 15.08839914 15421,6917.880999999999,95.438,540.957,538.534,0.0
51861.0,STARLINK-3562,PAYLOAD,2022-06-03 05:43:41,15.08848593,0.0001744,53.2152,63.7616,48.3647,311.7494,-3.6789e-05,-8.74e-06,0.0,0 STARLINK-3562,1 51861U 22022K   22154.23866910 -.00000874  00000-0 -36789-4 0  9996,2 51861  53.2152  63.7616 0001744  48.3647 311.7494 15.08848593 15453,6917.854,95.437,540.9259999999998,538.513,0.0
51861.0,STARLINK-3562,PAYLOAD,2022-06-03 21:37:32,15.08846708,0.0001836,53.216,60.7872,50.68600000000001,309.4295,-7.8987e-05,-1.545e-05,0.0,0 STARLINK-3562,1 51861U 22022K   22154.90106867 -.00001545  00000-0 -78987-4 0  9990,2 51861  53.2160  60.7872 0001836  50.6860 309.4295 15.08846708 15480,6917.86,95.437,540.995,538.455,0.0
51861.0,STARLINK-3562,PAYLOAD,2022-06-04 02:23:41,15.08838304,0.000178,53.2158,59.896,48.6312,311.4833,-4.1037e-05,-9.41e-06,0.0,0 STARLINK-3562,1 51861U 22022K   22155.09979147 -.00000941  00000-0 -41037-4 0  9995,2 51861  53.2158  59.8960 0001780  48.6312 311.4833 15.08838304 15586,6917.886,95.438,540.982,538.519,0.0
